{
  "type": "FeatureCollection",
  "features": [
    {
      "type": "Feature",
      "properties": {
        "name": "Прииск Гологой",
        "name_en": "Gologoi gold mine"
      },
      "geometry": {
        "coordinates": [107.39685, 49.485077],
        "type": "Point"
      }
    },
    {
      "type": "Feature",
      "properties": {
        "name": "Прииск Иро",
        "name_en": "Iro gold mine"
      },
      "geometry": {
        "coordinates": [107.19909, 49.160603],
        "type": "Point"
      }
    },
    {
      "type": "Feature",
      "properties": {
        "name": "Прииск Харгантуй",
        "name_en": "Khargantui gold mine"
      },
      "geometry": {
        "coordinates": [106.97662, 49.286171],
        "type": "Point"
      }
    }, 
    {
      "type": "Feature",
      "properties": {
        "name": "Прииск Худэри",
        "name_en": "Khuderi gold mine"
      },
      "geometry": {
        "coordinates": [107.752612, 49.628275],
        "type": "Point"
      }
    },
    {
      "type": "Feature",
      "properties": {
        "name": "Прииск Яблык",
        "name_en": "Yablyk gold mine"
      },
      "geometry": {
        "coordinates": [107.04391, 48.968949],
        "type": "Point"
      }
    }
  ]
}

